<?xml version='1.0' encoding='UTF-8' standalone='yes' ?>
<kml xmlns="http://www.opengis.net/kml/2.2" xmlns:atom="http://www.w3.org/2005/Atom" xmlns:gx="http://www.google.com/kml/ext/2.2" xmlns:kml="http://www.opengis.net/kml/2.2" xmlns:xsd="https://www.w3.org/2001/XMLSchema">
   <Document>
      <description>terrain.kml generated by ATAK v5.8.0.3 (4f67063) on: 2026-08-19T23:51:28Z</description>
      <name>terrain.kml</name>
      <open>true</open>
      <Style id="1967487857">
         <IconStyle>
            <color>FFFFFF00</color>
            <Icon>
               <href>http://maps.google.com/mapfiles/kml/pushpin/wht-pushpin.png</href>
            </Icon>
         </IconStyle>
         <LineStyle>
            <color>FFFFFF00</color>
            <width>3.0</width>
         </LineStyle>
         <PolyStyle>
            <color>86FFFF00</color>
            <fill>true</fill>
            <outline>true</outline>
         </PolyStyle>
      </Style>
      <Folder>
         <name>Drawing Objects</name>
         <Placemark id="32ca1e9f-b466-453e-b18f-5a1c099dafc3Shape 8 outer">
            <extendedData>
               <Data name="factory">
                  <value>u-d-f</value>
               </Data>
            </extendedData>
            <name>Shape 8</name>
            <styleUrl>#1967487857</styleUrl>
            <visibility>true</visibility>
            <Polygon id="32ca1e9f-b466-453e-b18f-5a1c099dafc3">
               <altitudeMode>clampToGround</altitudeMode>
               <outerBoundaryIs>
                  <LinearRing>
                     <coordinates>-117.6953214715423,33.774155439245824 -117.69371549014218,33.77850085204439 -117.68913593700557,33.78226637108425 -117.68405879253741,33.782659765604706 -117.67866253436189,33.78113826474968 -117.67313080101994,33.77943753815253 -117.67039752443338,33.78529487789189 -117.66609710083706,33.78677963554249 -117.6681621030476,33.77896812544112 -117.67132827486645,33.77322272037879 -117.68099876035713,33.77028649259376 -117.6843130868413,33.77302647043349 -117.69072633093568,33.77304517816687 -117.6953214715423,33.774155439245824 </coordinates>
                  </LinearRing>
               </outerBoundaryIs>
            </Polygon>
         </Placemark>
         <Placemark id="32ca1e9f-b466-453e-b18f-5a1c099dafc3Shape 8 center">
            <name>Shape 8</name>
            <styleUrl>#1967487857</styleUrl>
            <visibility>true</visibility>
            <Point>
               <coordinates>-117.68046524676369,33.77836782548691 </coordinates>
            </Point>
         </Placemark>
      </Folder>
   </Document>
</kml>
